STARLINK-5734           
1 55612U 23020AV  26068.12092583 -.00000465  00000+0 -19338-4 0  9992
2 55612  43.0053 354.7649 0001183 266.0726  93.9981 15.02534125168985
SEDNA-1                 
1 60580U 24149DS  26068.76583836  .00008721  00000+0  60834-3 0  9998
2 60580  97.6673 149.7617 0008344 330.8481  29.2278 15.05597965 85421
